[{"OBJECT_NAME":"STARLINK-31531","OBJECT_ID":"2024-068Y","EPOCH":"2026-03-09T03:12:42.929280","MEAN_MOTION":15.27570634,"ECCENTRICITY":0.00018776,"INCLINATION":43.0024,"RA_OF_ASC_NODE":342.5063,"ARG_OF_PERICENTER":271.296,"MEAN_ANOMALY":88.7677,"EPHEMERIS_TYPE":0,"CLASSIFICATION_TYPE":"U","NORAD_CAT_ID":59477,"ELEMENT_SET_NO":999,"REV_AT_EPOCH":10906,"BSTAR":-8.0016775e-5,"MEAN_MOTION_DOT":-2.463e-5,"MEAN_MOTION_DDOT":0},{"OBJECT_NAME":"FLOCK 4G-17","OBJECT_ID":"2025-009CA","EPOCH":"2026-03-09T22:51:51.984864","MEAN_MOTION":15.27385439,"ECCENTRICITY":0.00036407,"INCLINATION":97.3966,"RA_OF_ASC_NODE":151.0229,"ARG_OF_PERICENTER":339.6132,"MEAN_ANOMALY":20.4962,"EPHEMERIS_TYPE":0,"CLASSIFICATION_TYPE":"U","NORAD_CAT_ID":62681,"ELEMENT_SET_NO":999,"REV_AT_EPOCH":12139,"BSTAR":0.00053710713,"MEAN_MOTION_DOT":0.00014342,"MEAN_MOTION_DDOT":0}]
